{
  "type": "FeatureCollection",
  "features": [
    {
      "type": "Feature",
      "properties": {
        "norad_id": 39533,
        "name": "GPS BIIF-5  (PRN 30)",
        "group": "gps-ops",
        "lat": NaN,
        "lon": NaN,
        "alt_km": NaN,
        "timestamp": "2025-12-01T02:47:00.010548+00:00",
        "meta": {
          "OBJECT_NAME": "GPS BIIF-5  (PRN 30)",
          "OBJECT_ID": "2014-008A",
          "EPOCH": "2025-11-29T05:57:39.103200",
          "MEAN_MOTION": 2.00573621,
          "ECCENTRICITY": 0.00788834,
          "INCLINATION": 53.629,
          "RA_OF_ASC_NODE": 157.4751,
          "ARG_OF_PERICENTER": 226.3092,
          "MEAN_ANOMALY": 133.082,
          "EPHEMERIS_TYPE": 0,
          "CLASSIFICATION_TYPE": "U",
          "NORAD_CAT_ID": 39533,
          "ELEMENT_SET_NO": 999,
          "REV_AT_EPOCH": 8567,
          "BSTAR": 0,
          "MEAN_MOTION_DOT": 1.23e-06,
          "MEAN_MOTION_DDOT": 0
        }
      },
      "geometry": {
        "type": "Point",
        "coordinates": [
          NaN,
          NaN
        ]
      }
    },
    {
      "type": "Feature",
      "properties": {
        "norad_id": 39741,
        "name": "GPS BIIF-6  (PRN 06)",
        "group": "gps-ops",
        "lat": NaN,
        "lon": NaN,
        "alt_km": NaN,
        "timestamp": "2025-12-01T02:47:00.010566+00:00",
        "meta": {
          "OBJECT_NAME": "GPS BIIF-6  (PRN 06)",
          "OBJECT_ID": "2014-026A",
          "EPOCH": "2025-11-30T12:39:58.959072",
          "MEAN_MOTION": 2.00562075,
          "ECCENTRICITY": 0.0038837,
          "INCLINATION": 56.5882,
          "RA_OF_ASC_NODE": 339.2517,
          "ARG_OF_PERICENTER": 318.0342,
          "MEAN_ANOMALY": 41.7022,
          "EPHEMERIS_TYPE": 0,
          "CLASSIFICATION_TYPE": "U",
          "NORAD_CAT_ID": 39741,
          "ELEMENT_SET_NO": 999,
          "REV_AT_EPOCH": 8455,
          "BSTAR": 0,
          "MEAN_MOTION_DOT": -5e-07,
          "MEAN_MOTION_DDOT": 0
        }
      },
      "geometry": {
        "type": "Point",
        "coordinates": [
          NaN,
          NaN
        ]
      }
    },
    {
      "type": "Feature",
      "properties": {
        "norad_id": 40105,
        "name": "GPS BIIF-7  (PRN 09)",
        "group": "gps-ops",
        "lat": NaN,
        "lon": NaN,
        "alt_km": NaN,
        "timestamp": "2025-12-01T02:47:00.010584+00:00",
        "meta": {
          "OBJECT_NAME": "GPS BIIF-7  (PRN 09)",
          "OBJECT_ID": "2014-045A",
          "EPOCH": "2025-11-30T14:47:03.857568",
          "MEAN_MOTION": 2.00571708,
          "ECCENTRICITY": 0.0032957,
          "INCLINATION": 55.2214,
          "RA_OF_ASC_NODE": 96.3828,
          "ARG_OF_PERICENTER": 119.5712,
          "MEAN_ANOMALY": 240.7417,
          "EPHEMERIS_TYPE": 0,
          "CLASSIFICATION_TYPE": "U",
          "NORAD_CAT_ID": 40105,
          "ELEMENT_SET_NO": 999,
          "REV_AT_EPOCH": 8209,
          "BSTAR": 0,
          "MEAN_MOTION_DOT": 2.4e-07,
          "MEAN_MOTION_DDOT": 0
        }
      },
      "geometry": {
        "type": "Point",
        "coordinates": [
          NaN,
          NaN
        ]
      }
    },
    {
      "type": "Feature",
      "properties": {
        "norad_id": 40294,
        "name": "GPS BIIF-8  (PRN 03)",
        "group": "gps-ops",
        "lat": NaN,
        "lon": NaN,
        "alt_km": NaN,
        "timestamp": "2025-12-01T02:47:00.010602+00:00",
        "meta": {
          "OBJECT_NAME": "GPS BIIF-8  (PRN 03)",
          "OBJECT_ID": "2014-068A",
          "EPOCH": "2025-11-30T11:50:19.709088",
          "MEAN_MOTION": 2.00564008,
          "ECCENTRICITY": 0.0060843,
          "INCLINATION": 56.8481,
          "RA_OF_ASC_NODE": 38.6199,
          "ARG_OF_PERICENTER": 69.4521,
          "MEAN_ANOMALY": 291.2475,
          "EPHEMERIS_TYPE": 0,
          "CLASSIFICATION_TYPE": "U",
          "NORAD_CAT_ID": 40294,
          "ELEMENT_SET_NO": 999,
          "REV_AT_EPOCH": 8122,
          "BSTAR": 0,
          "MEAN_MOTION_DOT": -6.3e-07,
          "MEAN_MOTION_DDOT": 0
        }
      },
      "geometry": {
        "type": "Point",
        "coordinates": [
          NaN,
          NaN
        ]
      }
    },
    {
      "type": "Feature",
      "properties": {
        "norad_id": 40534,
        "name": "GPS BIIF-9  (PRN 26)",
        "group": "gps-ops",
        "lat": NaN,
        "lon": NaN,
        "alt_km": NaN,
        "timestamp": "2025-12-01T02:47:00.010620+00:00",
        "meta": {
          "OBJECT_NAME": "GPS BIIF-9  (PRN 26)",
          "OBJECT_ID": "2015-013A",
          "EPOCH": "2025-11-30T14:57:40.946112",
          "MEAN_MOTION": 2.00563248,
          "ECCENTRICITY": 0.0106501,
          "INCLINATION": 53.1999,
          "RA_OF_ASC_NODE": 212.3921,
          "ARG_OF_PERICENTER": 38.1767,
          "MEAN_ANOMALY": 322.6592,
          "EPHEMERIS_TYPE": 0,
          "CLASSIFICATION_TYPE": "U",
          "NORAD_CAT_ID": 40534,
          "ELEMENT_SET_NO": 999,
          "REV_AT_EPOCH": 7784,
          "BSTAR": 0,
          "MEAN_MOTION_DOT": 6.2e-07,
          "MEAN_MOTION_DDOT": 0
        }
      },
      "geometry": {
        "type": "Point",
        "coordinates": [
          NaN,
          NaN
        ]
      }
    },
    {
      "type": "Feature",
      "properties": {
        "norad_id": 40730,
        "name": "GPS BIIF-10 (PRN 08)",
        "group": "gps-ops",
        "lat": NaN,
        "lon": NaN,
        "alt_km": NaN,
        "timestamp": "2025-12-01T02:47:00.010638+00:00",
        "meta": {
          "OBJECT_NAME": "GPS BIIF-10 (PRN 08)",
          "OBJECT_ID": "2015-033A",
          "EPOCH": "2025-11-30T18:50:04.628256",
          "MEAN_MOTION": 2.00566115,
          "ECCENTRICITY": 0.0110215,
          "INCLINATION": 54.1411,
          "RA_OF_ASC_NODE": 275.2649,
          "ARG_OF_PERICENTER": 26.5168,
          "MEAN_ANOMALY": 334.0421,
          "EPHEMERIS_TYPE": 0,
          "CLASSIFICATION_TYPE": "U",
          "NORAD_CAT_ID": 40730,
          "ELEMENT_SET_NO": 999,
          "REV_AT_EPOCH": 7601,
          "BSTAR": 0,
          "MEAN_MOTION_DOT": -3.8e-07,
          "MEAN_MOTION_DDOT": 0
        }
      },
      "geometry": {
        "type": "Point",
        "coordinates": [
          NaN,
          NaN
        ]
      }
    },
    {
      "type": "Feature",
      "properties": {
        "norad_id": 41019,
        "name": "GPS BIIF-11 (PRN 10)",
        "group": "gps-ops",
        "lat": NaN,
        "lon": NaN,
        "alt_km": NaN,
        "timestamp": "2025-12-01T02:47:00.010655+00:00",
        "meta": {
          "OBJECT_NAME": "GPS BIIF-11 (PRN 10)",
          "OBJECT_ID": "2015-062A",
          "EPOCH": "2025-11-29T20:19:38.445600",
          "MEAN_MOTION": 2.00566933,
          "ECCENTRICITY": 0.01104348,
          "INCLINATION": 56.8229,
          "RA_OF_ASC_NODE": 38.5012,
          "ARG_OF_PERICENTER": 229.5952,
          "MEAN_ANOMALY": 129.4841,
          "EPHEMERIS_TYPE": 0,
          "CLASSIFICATION_TYPE": "U",
          "NORAD_CAT_ID": 41019,
          "ELEMENT_SET_NO": 999,
          "REV_AT_EPOCH": 7383,
          "BSTAR": 0,
          "MEAN_MOTION_DOT": -6.2e-07,
          "MEAN_MOTION_DDOT": 0
        }
      },
      "geometry": {
        "type": "Point",
        "coordinates": [
          NaN,
          NaN
        ]
      }
    },
    {
      "type": "Feature",
      "properties": {
        "norad_id": 41328,
        "name": "GPS BIIF-12 (PRN 32)",
        "group": "gps-ops",
        "lat": NaN,
        "lon": NaN,
        "alt_km": NaN,
        "timestamp": "2025-12-01T02:47:00.010673+00:00",
        "meta": {
          "OBJECT_NAME": "GPS BIIF-12 (PRN 32)",
          "OBJECT_ID": "2016-007A",
          "EPOCH": "2025-11-29T22:18:04.287456",
          "MEAN_MOTION": 2.00561276,
          "ECCENTRICITY": 0.00915445,
          "INCLINATION": 55.3987,
          "RA_OF_ASC_NODE": 97.3656,
          "ARG_OF_PERICENTER": 243.2609,
          "MEAN_ANOMALY": 115.7881,
          "EPHEMERIS_TYPE": 0,
          "CLASSIFICATION_TYPE": "U",
          "NORAD_CAT_ID": 41328,
          "ELEMENT_SET_NO": 999,
          "REV_AT_EPOCH": 7184,
          "BSTAR": 0,
          "MEAN_MOTION_DOT": 3.3e-07,
          "MEAN_MOTION_DDOT": 0
        }
      },
      "geometry": {
        "type": "Point",
        "coordinates": [
          NaN,
          NaN
        ]
      }
    }
  ]
}