GPS BIIF-5  (PRN 30)    
1 39533U 14008A   25333.24836925  .00000123  00000+0  00000+0 0  9995
2 39533  53.6290 157.4751 0078883 226.3092 133.0820  2.00573621 85677
GPS BIIF-6  (PRN 06)    
1 39741U 14026A   25334.52776573 -.00000050  00000+0  00000+0 0  9990
2 39741  56.5882 339.2517 0038837 318.0342  41.7022  2.00562075 84555
GPS BIIF-7  (PRN 09)    
1 40105U 14045A   25334.61601687  .00000024  00000+0  00000+0 0  9990
2 40105  55.2214  96.3828 0032957 119.5712 240.7417  2.00571708 82093
GPS BIIF-8  (PRN 03)    
1 40294U 14068A   25334.49328367 -.00000063  00000+0  00000+0 0  9995
2 40294  56.8481  38.6199 0060843  69.4521 291.2475  2.00564008 81225
GPS BIIF-9  (PRN 26)    
1 40534U 15013A   25334.62339058  .00000062  00000+0  00000+0 0  9995
2 40534  53.1999 212.3921 0106501  38.1767 322.6592  2.00563248 77844
GPS BIIF-10 (PRN 08)    
1 40730U 15033A   25334.78477579 -.00000038  00000+0  00000+0 0  9997
2 40730  54.1411 275.2649 0110215  26.5168 334.0421  2.00566115 76012
GPS BIIF-11 (PRN 10)    
1 41019U 15062A   25333.84697275 -.00000062  00000+0  00000+0 0  9990
2 41019  56.8229  38.5012 0110434 229.5952 129.4841  2.00566933 73839
GPS BIIF-12 (PRN 32)    
1 41328U 16007A   25333.92921629  .00000033  00000+0  00000+0 0  9992
2 41328  55.3987  97.3656 0091544 243.2609 115.7881  2.00561276 71842
